[{"OBJECT_NAME":"GLOBAL-2","OBJECT_ID":"2018-099BG","EPOCH":"2026-03-09T16:47:21.463008","MEAN_MOTION":15.08046936,"ECCENTRICITY":0.00074537,"INCLINATION":97.3697,"RA_OF_ASC_NODE":109.328,"ARG_OF_PERICENTER":127.1924,"MEAN_ANOMALY":232.9986,"EPHEMERIS_TYPE":0,"CLASSIFICATION_TYPE":"U","NORAD_CAT_ID":43812,"ELEMENT_SET_NO":999,"REV_AT_EPOCH":39691,"BSTAR":0.0002614533,"MEAN_MOTION_DOT":3.97e-5,"MEAN_MOTION_DDOT":0},{"OBJECT_NAME":"STARLINK-4762","OBJECT_ID":"2022-114BA","EPOCH":"2026-03-09T21:59:59.016192","MEAN_MOTION":15.08837375,"ECCENTRICITY":0.00012423,"INCLINATION":53.2167,"RA_OF_ASC_NODE":263.3096,"ARG_OF_PERICENTER":91.7488,"MEAN_ANOMALY":268.3647,"EPHEMERIS_TYPE":0,"CLASSIFICATION_TYPE":"U","NORAD_CAT_ID":53866,"ELEMENT_SET_NO":999,"REV_AT_EPOCH":19342,"BSTAR":2.9865279e-5,"MEAN_MOTION_DOT":1.87e-6,"MEAN_MOTION_DDOT":0}]
